{
  "links" : {
    "next" : "https://api.nasa.gov/neo/rest/v1/feed?start_date=2012-11-23&end_date=2012-11-23&detailed=true&api_key=t0TVs3DtDT2H8Oy2Zy8m2eVrNsAVKAexjcZXUckd",
    "prev" : "https://api.nasa.gov/neo/rest/v1/feed?start_date=2012-11-21&end_date=2012-11-21&detailed=true&api_key=t0TVs3DtDT2H8Oy2Zy8m2eVrNsAVKAexjcZXUckd",
    "self" : "https://api.nasa.gov/neo/rest/v1/feed?start_date=2012-11-22&end_date=2012-11-22&detailed=true&api_key=t0TVs3DtDT2H8Oy2Zy8m2eVrNsAVKAexjcZXUckd"
  },
  "element_count" : 5,
  "near_earth_objects" : {
    "2012-11-22" : [ {
      "links" : {
        "self" : "https://api.nasa.gov/neo/rest/v1/neo/3619321?api_key=t0TVs3DtDT2H8Oy2Zy8m2eVrNsAVKAexjcZXUckd"
      },
      "neo_reference_id" : "3619321",
      "name" : "(2012 XN2)",
      "nasa_jpl_url" : "http://ssd.jpl.nasa.gov/sbdb.cgi?sstr=3619321",
      "absolute_magnitude_h" : 21.4,
      "estimated_diameter" : {
        "kilometers" : {
          "estimated_diameter_min" : 0.1394938229,
          "estimated_diameter_max" : 0.3119176705
        },
        "meters" : {
          "estimated_diameter_min" : 139.4938229344,
          "estimated_diameter_max" : 311.9176705226
        },
        "miles" : {
          "estimated_diameter_min" : 0.0866774163,
          "estimated_diameter_max" : 0.1938165949
        },
        "feet" : {
          "estimated_diameter_min" : 457.6569140361,
          "estimated_diameter_max" : 1023.3519701574
        }
      },
      "is_potentially_hazardous_asteroid" : false,
      "close_approach_data" : [ {
        "close_approach_date" : "2012-11-22",
        "epoch_date_close_approach" : 1353571200000,
        "relative_velocity" : {
          "kilometers_per_second" : "20.8464073138",
          "kilometers_per_hour" : "75047.0663297542",
          "miles_per_hour" : "46631.3285202853"
        },
        "miss_distance" : {
          "astronomical" : "0.119152794",
          "lunar" : "46.3504371643",
          "kilometers" : "17825004",
          "miles" : "11075944"
        },
        "orbiting_body" : "Earth"
      } ],
      "orbital_data" : {
        "orbit_id" : "11",
        "orbit_determination_date" : "2017-04-06 08:47:50",
        "orbit_uncertainty" : "8",
        "minimum_orbit_intersection" : ".115219",
        "jupiter_tisserand_invariant" : "5.442",
        "epoch_osculation" : "2456267.5",
        "eccentricity" : ".3722578918006306",
        "semi_major_axis" : "1.098206515606398",
        "inclination" : "34.32954398821524",
        "ascending_node_longitude" : "246.2131272045458",
        "orbital_period" : "420.3629691356527",
        "perihelion_distance" : ".6893904733450439",
        "perihelion_argument" : "63.76893365848303",
        "aphelion_distance" : "1.507022557867752",
        "perihelion_time" : "2456178.944046551807",
        "mean_anomaly" : "75.83956147921687",
        "mean_motion" : ".8564027434201195",
        "equinox" : "J2000"
      }
    }, {
      "links" : {
        "self" : "https://api.nasa.gov/neo/rest/v1/neo/3619461?api_key=t0TVs3DtDT2H8Oy2Zy8m2eVrNsAVKAexjcZXUckd"
      },
      "neo_reference_id" : "3619461",
      "name" : "(2012 XL16)",
      "nasa_jpl_url" : "http://ssd.jpl.nasa.gov/sbdb.cgi?sstr=3619461",
      "absolute_magnitude_h" : 25.5,
      "estimated_diameter" : {
        "kilometers" : {
          "estimated_diameter_min" : 0.0211132445,
          "estimated_diameter_max" : 0.0472106499
        },
        "meters" : {
          "estimated_diameter_min" : 21.113244479,
          "estimated_diameter_max" : 47.2106498806
        },
        "miles" : {
          "estimated_diameter_min" : 0.0131191578,
          "estimated_diameter_max" : 0.0293353287
        },
        "feet" : {
          "estimated_diameter_min" : 69.2691770164,
          "estimated_diameter_max" : 154.8905885541
        }
      },
      "is_potentially_hazardous_asteroid" : false,
      "close_approach_data" : [ {
        "close_approach_date" : "2012-11-22",
        "epoch_date_close_approach" : 1353571200000,
        "relative_velocity" : {
          "kilometers_per_second" : "5.6114243284",
          "kilometers_per_hour" : "20201.1275823776",
          "miles_per_hour" : "12552.1950802834"
        },
        "miss_distance" : {
          "astronomical" : "0.0216210616",
          "lunar" : "8.4105930328",
          "kilometers" : "3234464.75",
          "miles" : "2009803.25"
        },
        "orbiting_body" : "Earth"
      } ],
      "orbital_data" : {
        "orbit_id" : "7",
        "orbit_determination_date" : "2017-04-06 08:47:48",
        "orbit_uncertainty" : "6",
        "minimum_orbit_intersection" : ".0185856",
        "jupiter_tisserand_invariant" : "6.135",
        "epoch_osculation" : "2458000.5",
        "eccentricity" : ".1783972461898557",
        "semi_major_axis" : ".9854805421954934",
        "inclination" : "3.126290537611457",
        "ascending_node_longitude" : "259.3622114011042",
        "orbital_period" : "357.3308459663719",
        "perihelion_distance" : ".8096735272941316",
        "perihelion_argument" : "58.30931759261672",
        "aphelion_distance" : "1.161287557096855",
        "perihelion_time" : "2457957.968602339104",
        "mean_anomaly" : "42.84909441980736",
        "mean_motion" : "1.007469699478111",
        "equinox" : "J2000"
      }
    } ]
  }
}